[{"OBJECT_NAME":"GAOFEN-9 03","OBJECT_ID":"2020-039A","EPOCH":"2026-03-09T21:55:15.121344","MEAN_MOTION":15.30529116,"ECCENTRICITY":0.0013094,"INCLINATION":97.5219,"RA_OF_ASC_NODE":201.2158,"ARG_OF_PERICENTER":77.4533,"MEAN_ANOMALY":282.8172,"EPHEMERIS_TYPE":0,"CLASSIFICATION_TYPE":"U","NORAD_CAT_ID":45794,"ELEMENT_SET_NO":999,"REV_AT_EPOCH":31856,"BSTAR":0.00039258132,"MEAN_MOTION_DOT":0.00011544,"MEAN_MOTION_DDOT":0},{"OBJECT_NAME":"STARLINK-35367","OBJECT_ID":"2025-224B","EPOCH":"2026-03-09T06:46:30.245664","MEAN_MOTION":15.30192804,"ECCENTRICITY":0.00015155,"INCLINATION":53.1613,"RA_OF_ASC_NODE":13.1257,"ARG_OF_PERICENTER":45.5217,"MEAN_ANOMALY":314.5907,"EPHEMERIS_TYPE":0,"CLASSIFICATION_TYPE":"U","NORAD_CAT_ID":65883,"ELEMENT_SET_NO":999,"REV_AT_EPOCH":2476,"BSTAR":0.00096613493,"MEAN_MOTION_DOT":0.00028358,"MEAN_MOTION_DDOT":0}]
